CENTISPACE-1 S7         
1 62576U 25007B   25025.90200012  .00002273  00000+0  34751-3 0  9994
2 62576  54.9795  76.0169 0018142 330.2517  29.7450 14.77213952  1888
CENTISPACE-1 S8         
1 62577U 25007C   25025.90253401  .00002214  00000+0  34069-3 0  9992
2 62577  54.9857  76.0268 0016261 333.5621  26.4548 14.77040192  1886
CENTISPACE-1 S9         
1 62578U 25007D   25025.63425160  .00004748  00000+0  71235-3 0  9996
2 62578  54.9816  77.1432 0014505 336.7998  23.2346 14.76053481  1849
CENTISPACE-1 S10        
1 62579U 25007E   25025.90984482  .00003310  00000+0  53281-3 0  9999
2 62579  54.9862  76.0672 0009562 326.4384  33.6008 14.73813308  1880
CENTISPACE-1 S11        
1 62580U 25007F   25025.63425744  .00004896  00000+0  72847-3 0  9991
2 62580  54.9771  77.1385 0014408 328.1347  31.8780 14.76361022  1844
CENTISPACE-1 S12        
1 62581U 25007G   25025.90458376  .00003764  00000+0  56234-3 0  9994
2 62581  54.9777  76.0291 0015648 334.8745  25.1492 14.76717013  1894
CENTISPACE-1 S13        
1 62582U 25007H   25025.90507842  .00003704  00000+0  55743-3 0  9996
2 62582  54.9837  76.0383 0014854 330.2610  29.7544 14.76450066  1882
CENTISPACE-1 S14        
1 62583U 25007J   25025.91176503  .00003198  00000+0  51917-3 0  9990
2 62583  54.9818  76.0725 0009018 324.6366  35.4034 14.73523296  1884
CENTISPACE-1 S15        
1 62584U 25007K   25025.90940663  .00004334  00000+0  66612-3 0  9997
2 62584  54.9823  76.0602 0012271 324.3189  35.6989 14.75195954  1889
CENTISPACE-1 S16        
1 62585U 25007L   25025.90969363  .00004289  00000+0  66011-3 0  9998
2 62585  54.9822  76.0617 0012156 323.9145  36.1033 14.75163703  1887
STARLINK-11547 [DTC]    
1 62587U 25008A   25025.91668981 -.00006683  00000+0 -35569-4 0  9991
2 62587  43.0020  67.1105 0001556 273.6009 261.9311 15.77855290  3121
STARLINK-11185 [DTC]    
1 62588U 25008B   25025.91668981 -.00009766  00000+0 -53294-4 0  9992
2 62588  43.0051  67.0402 0001950 268.9685 294.3080 15.77863312  3060
STARLINK-11513 [DTC]    
1 62589U 25008C   25025.91668981 -.01098604  00000+0 -65019-2 0  9999
2 62589  43.0067  66.9768 0001834 269.5197 319.2675 15.79584348  3122
STARLINK-11397 [DTC]    
1 62590U 25008D   25025.55814923 -.00397876  00000+0 -18745-2 0  9996
2 62590  43.0072  69.1347 0001797 288.8943  71.1734 15.83119480  2999
STARLINK-11420 [DTC]    
1 62591U 25008E   25025.55743808 -.00009633  00000+0 -38458-4 0  9996
2 62591  43.0071  69.1287 0001380 250.3023 109.7701 15.84450952  3067
STARLINK-11415 [DTC]    
1 62592U 25008F   25025.55704118  .00140294  00000+0  58303-3 0  9995
2 62592  43.0075  69.1255 0001020 265.8443  94.2314 15.84576377  3007
STARLINK-11413 [DTC]    
1 62593U 25008G   25025.55657677  .00061709  00000+0  26119-3 0  9996
2 62593  43.0074  69.1214 0001344 274.2013  85.8706 15.84486783  2964
STARLINK-11416 [DTC]    
1 62594U 25008H   25025.91668981 -.00157511  16840-4 -36715-3 0  9993
2 62594  43.0062  66.3676 0001129 281.8463 188.8150 15.95786386  2902
STARLINK-11535 [DTC]    
1 62595U 25008J   25025.55570254  .00034502  00000+0  14788-3 0  9993
2 62595  43.0073  69.1132 0001991 237.6201 122.4479 15.84434426  2911
STARLINK-11532 [DTC]    
1 62596U 25008K   25025.55532424  .00076175  00000+0  32183-3 0  9992
2 62596  43.0067  69.1111 0001561 264.0013  96.0682 15.84454414  2832
STARLINK-11521 [DTC]    
1 62597U 25008L   25025.55485653  .00092608  00000+0  38886-3 0  9999
2 62597  43.0065  69.1077 0001499 257.3319 102.7386 15.84516707  3051
STARLINK-11258 [DTC]    
1 62598U 25008M   25025.55442132  .00027726  00000+0  11948-3 0  9994
2 62598  43.0058  69.1039 0001402 268.7184  91.3528 15.84419406  3062
STARLINK-11529 [DTC]    
1 62599U 25008N   25025.55395588  .00032468  00000+0  13944-3 0  9994
2 62599  43.0063  69.0988 0001486 236.8317 123.2413 15.84419148  3068
STARLINK-32747          
1 62600U 25008P   25025.91668981 -.00907458  00000+0 -63541-2 0  9996
2 62600  43.0038  66.9995 0001451 273.2613 306.1427 15.75800858  3130
STARLINK-32767          
1 62601U 25008Q   25025.91668981 -.00848563  00000+0 -59223-2 0  9990
2 62601  43.0036  66.9942 0001402 277.1822 304.2212 15.75713554  3195
STARLINK-32769          
1 62602U 25008R   25025.91668981 -.00795802  00000+0 -55331-2 0  9994
2 62602  43.0036  66.9891 0001226 273.9753 309.3927 15.75656817  3197
STARLINK-32778          
1 62603U 25008S   25025.91668981 -.00731047  00000+0 -50583-2 0  9990
2 62603  43.0037  66.9844 0001497 265.4986 319.8405 15.75588867  3131
STARLINK-32710          
1 62604U 25008T   25025.91668981 -.00667835  00000+0 -45984-2 0  9993
2 62604  43.0035  66.9791 0001203 272.8472 314.4502 15.75531345  3136
JIELONG-3 DEB           
1 62575U 25007A   25025.51241527  .00004286  00000+0  67682-3 0  9991
2 62575  54.9845  77.7752 0010625 297.9086  62.0837 14.74047806  1831
JIELONG-3 R/B           
1 62586U 25007M   25025.42958645  .00532972  10093-4  11192-2 0  9999
2 62586  54.9411  71.7943 0280859  29.9605 331.7172 15.55076967  1902
