OBJECT_NAME,OBJECT_ID,EPOCH,MEAN_MOTION,ECCENTRICITY,INCLINATION,RA_OF_ASC_NODE,ARG_OF_PERICENTER,MEAN_ANOMALY,EPHEMERIS_TYPE,CLASSIFICATION_TYPE,NORAD_CAT_ID,ELEMENT_SET_NO,REV_AT_EPOCH,BSTAR,MEAN_MOTION_DOT,MEAN_MOTION_DDOT
JIELONG-3 DEB,2025-007A,2025-01-25T12:17:52.679328,14.74047806,.0010625,54.9845,77.7752,297.9086,62.0837,0,U,62575,999,183,.67682E-3,.4286E-4,0
CENTISPACE-1 S7,2025-007B,2025-01-25T21:38:52.810368,14.77213952,.0018142,54.9795,76.0169,330.2517,29.7450,0,U,62576,999,188,.34751E-3,.2273E-4,0
CENTISPACE-1 S8,2025-007C,2025-01-25T21:39:38.938464,14.77040192,.0016261,54.9857,76.0268,333.5621,26.4548,0,U,62577,999,188,.34069E-3,.2214E-4,0
CENTISPACE-1 S9,2025-007D,2025-01-25T15:13:19.338240,14.76053481,.0014505,54.9816,77.1432,336.7998,23.2346,0,U,62578,999,184,.71235E-3,.4748E-4,0
CENTISPACE-1 S10,2025-007E,2025-01-25T21:50:10.592448,14.73813308,.0009562,54.9862,76.0672,326.4384,33.6008,0,U,62579,999,188,.53281E-3,.331E-4,0
CENTISPACE-1 S11,2025-007F,2025-01-25T15:13:19.842816,14.76361022,.0014408,54.9771,77.1385,328.1347,31.8780,0,U,62580,999,184,.72847E-3,.4896E-4,0
CENTISPACE-1 S12,2025-007G,2025-01-25T21:42:36.036864,14.76717013,.0015648,54.9777,76.0291,334.8745,25.1492,0,U,62581,999,189,.56234E-3,.3764E-4,0
CENTISPACE-1 S13,2025-007H,2025-01-25T21:43:18.775488,14.76450066,.0014854,54.9837,76.0383,330.2610,29.7544,0,U,62582,999,188,.55743E-3,.3704E-4,0
CENTISPACE-1 S14,2025-007J,2025-01-25T21:52:56.498592,14.73523296,.0009018,54.9818,76.0725,324.6366,35.4034,0,U,62583,999,188,.51917E-3,.3198E-4,0
CENTISPACE-1 S15,2025-007K,2025-01-25T21:49:32.732832,14.75195954,.0012271,54.9823,76.0602,324.3189,35.6989,0,U,62584,999,188,.66612E-3,.4334E-4,0
CENTISPACE-1 S16,2025-007L,2025-01-25T21:49:57.529632,14.75163703,.0012156,54.9822,76.0617,323.9145,36.1033,0,U,62585,999,188,.66011E-3,.4289E-4,0
JIELONG-3 R/B,2025-007M,2025-01-25T10:18:36.269280,15.55076967,.0280859,54.9411,71.7943,29.9605,331.7172,0,U,62586,999,190,.11192E-2,.532972E-2,.10093E-4
STARLINK-11547 [DTC],2025-008A,2025-01-25T22:00:01.999584,15.77855290,.0001556,43.0020,67.1105,273.6009,261.9311,0,U,62587,999,312,-.35569E-4,-.6683E-4,0
STARLINK-11185 [DTC],2025-008B,2025-01-25T22:00:01.999584,15.77863312,.000195,43.0051,67.0402,268.9685,294.3080,0,U,62588,999,306,-.53294E-4,-.9766E-4,0
STARLINK-11513 [DTC],2025-008C,2025-01-25T22:00:01.999584,15.79584348,.0001834,43.0067,66.9768,269.5197,319.2675,0,U,62589,999,312,-.65019E-2,-.1098604E-1,0
STARLINK-11397 [DTC],2025-008D,2025-01-25T13:23:44.093472,15.83119480,.0001797,43.0072,69.1347,288.8943,71.1734,0,U,62590,999,299,-.18745E-2,-.397876E-2,0
STARLINK-11420 [DTC],2025-008E,2025-01-25T13:22:42.650112,15.84450952,.000138,43.0071,69.1287,250.3023,109.7701,0,U,62591,999,306,-.38458E-4,-.9633E-4,0
STARLINK-11415 [DTC],2025-008F,2025-01-25T13:22:08.357952,15.84576377,.000102,43.0075,69.1255,265.8443,94.2314,0,U,62592,999,300,.58303E-3,.140294E-2,0
STARLINK-11413 [DTC],2025-008G,2025-01-25T13:21:28.232928,15.84486783,.0001344,43.0074,69.1214,274.2013,85.8706,0,U,62593,999,296,.26119E-3,.61709E-3,0
STARLINK-11416 [DTC],2025-008H,2025-01-25T22:00:01.999584,15.95786386,.0001129,43.0062,66.3676,281.8463,188.8150,0,U,62594,999,290,-.36715E-3,-.157511E-2,.1684E-4
STARLINK-11535 [DTC],2025-008J,2025-01-25T13:20:12.699456,15.84434426,.0001991,43.0073,69.1132,237.6201,122.4479,0,U,62595,999,291,.14788E-3,.34502E-3,0
STARLINK-11532 [DTC],2025-008K,2025-01-25T13:19:40.014336,15.84454414,.0001561,43.0067,69.1111,264.0013,96.0682,0,U,62596,999,283,.32183E-3,.76175E-3,0
STARLINK-11521 [DTC],2025-008L,2025-01-25T13:18:59.604192,15.84516707,.0001499,43.0065,69.1077,257.3319,102.7386,0,U,62597,999,305,.38886E-3,.92608E-3,0
STARLINK-11258 [DTC],2025-008M,2025-01-25T13:18:22.002048,15.84419406,.0001402,43.0058,69.1039,268.7184,91.3528,0,U,62598,999,306,.11948E-3,.27726E-3,0
STARLINK-11529 [DTC],2025-008N,2025-01-25T13:17:41.788032,15.84419148,.0001486,43.0063,69.0988,236.8317,123.2413,0,U,62599,999,306,.13944E-3,.32468E-3,0
STARLINK-32747,2025-008P,2025-01-25T22:00:01.999584,15.75800858,.0001451,43.0038,66.9995,273.2613,306.1427,0,U,62600,999,313,-.63541E-2,-.907458E-2,0
STARLINK-32767,2025-008Q,2025-01-25T22:00:01.999584,15.75713554,.0001402,43.0036,66.9942,277.1822,304.2212,0,U,62601,999,319,-.59223E-2,-.848563E-2,0
STARLINK-32769,2025-008R,2025-01-25T22:00:01.999584,15.75656817,.0001226,43.0036,66.9891,273.9753,309.3927,0,U,62602,999,319,-.55331E-2,-.795802E-2,0
STARLINK-32778,2025-008S,2025-01-25T22:00:01.999584,15.75588867,.0001497,43.0037,66.9844,265.4986,319.8405,0,U,62603,999,313,-.50583E-2,-.731047E-2,0
STARLINK-32710,2025-008T,2025-01-25T22:00:01.999584,15.75531345,.0001203,43.0035,66.9791,272.8472,314.4502,0,U,62604,999,313,-.45984E-2,-.667835E-2,0
